STARLINK-5467           
1 55660U 23021AJ  26068.65613122  .00002858  00000+0  24740-3 0  9990
2 55660  70.0014 164.3842 0003405 269.2197  90.8572 14.98299745169287
LEMUR-2-DELOITTE-1      
1 63259U 25052BB  26068.93956839  .00005004  00000+0  44206-3 0  9990
2 63259  97.7035 323.2090 0003011  78.3841 281.7719 14.96797120 53844
